NORAD_CAT_ID,OBJECT_NAME,OBJECT_TYPE,EPOCH,MEAN_MOTION,ECCENTRICITY,INCLINATION,RA_OF_ASC_NODE,ARG_OF_PERICENTER,MEAN_ANOMALY,BSTAR,MEAN_MOTION_DOT,MEAN_MOTION_DDOT,TLE_LINE0,TLE_LINE1,TLE_LINE2,SEMIMAJOR_AXIS,PERIOD,APOGEE,PERIGEE,DECAYED
51714.0,STARLINK-3528,PAYLOAD,2023-10-19 03:59:39,15.08843076,0.0001502,53.2157,286.0326,91.1139,269.0025,0.00013453,1.854e-05,0.0,0 STARLINK-3528,1 51714U 22016A   23292.16642627  .00001854  00000-0  13453-3 0  9998,2 51714  53.2157 286.0326 0001502  91.1139 269.0025 15.08843076 92773,6917.871,95.437,540.775,538.697,0.0
51714.0,STARLINK-3528,PAYLOAD,2023-10-19 08:45:48,15.08849839,0.0001765,53.2177,285.1402,89.7471,270.3724,0.00022605,3.312e-05,0.0,0 STARLINK-3528,1 51714U 22016A   23292.36514415  .00003312  00000-0  22605-3 0  9993,2 51714  53.2177 285.1402 0001765  89.7471 270.3724 15.08849839 91732,6917.85,95.437,540.936,538.494,0.0
51714.0,STARLINK-3528,PAYLOAD,2023-10-19 16:42:44,15.08843545,0.0001575,53.2167,283.6508,96.4731,263.6441,5.3566e-05,5.65e-06,0.0,0 STARLINK-3528,1 51714U 22016A   23292.69634419  .00000565  00000-0  53566-4 0  9994,2 51714  53.2167 283.6508 0001575  96.4731 263.6441 15.08843545 91788,6917.87,95.437,540.824,538.645,0.0
51714.0,STARLINK-3528,PAYLOAD,2023-10-20 08:36:35,15.08849188,0.0001664,53.2153,280.6776,91.2839,268.8344,0.00016226,2.296e-05,0.0,0 STARLINK-3528,1 51714U 22016A   23293.35874275  .00002296  00000-0  16226-3 0  9998,2 51714  53.2153 280.6776 0001664  91.2839 268.8344 15.08849188 92956,6917.852,95.437,540.868,538.566,0.0
51714.0,STARLINK-3528,PAYLOAD,2023-10-20 22:55:04,15.08834297,0.0001483,53.2178,278.0005,101.9544,258.1615,7.385e-06,-1.7e-06,0.0,0 STARLINK-3528,1 51714U 22016A   23293.95491162 -.00000170  00000-0  73850-5 0  9992,2 51714  53.2178 278.0005 0001483 101.9544 258.1615 15.08834297 91979,6917.898,95.438,540.789,538.737,0.0
51714.0,STARLINK-3528,PAYLOAD,2023-10-21 05:16:36,15.08838727,0.0001809,53.2164,276.8114,118.099,242.0185,3.3593e-05,2.47e-06,0.0,0 STARLINK-3528,1 51714U 22016A   23294.21986773  .00000247  00000-0  33593-4 0  9992,2 51714  53.2164 276.8114 0001809 118.0990 242.0185 15.08838727 93087,6917.884,95.438,541.001,538.498,0.0
51714.0,STARLINK-3528,PAYLOAD,2023-10-21 16:24:18,15.08850915,0.0001747,53.2171,274.7291,107.0371,253.0813,0.0002964,4.434e-05,0.0,0 STARLINK-3528,1 51714U 22016A   23294.68354387  .00004434  00000-0  29640-3 0  9992,2 51714  53.2171 274.7291 0001747 107.0371 253.0813 15.08850915 93151,6917.847,95.437,540.921,538.503,0.0
51714.0,STARLINK-3528,PAYLOAD,2023-10-21 22:45:50,15.08861421,0.0001373,53.2156,273.5419,83.6739,276.4409,0.00050252,7.723e-05,0.0,0 STARLINK-3528,1 51714U 22016A   23294.94849715  .00007723  00000-0  50252-3 0  9992,2 51714  53.2156 273.5419 0001373  83.6739 276.4409 15.08861421 92125,6917.815,95.436,540.63,538.73,0.0
51714.0,STARLINK-3528,PAYLOAD,2023-10-22 05:07:23,15.08837633,0.0001402,53.2175,272.3532,86.7624,273.3529,1.1263e-06,-2.7e-06,0.0,0 STARLINK-3528,1 51714U 22016A   23295.21346618 -.00000270  00000-0  11263-5 0  9999,2 51714  53.2175 272.3532 0001402  86.7624 273.3529 15.08837633 93239,6917.888,95.438,540.723,538.783,0.0
51714.0,STARLINK-3528,PAYLOAD,2023-10-22 08:18:09,15.08834912,0.0001426,53.217,271.7602,75.9983,284.1167,-6.0955e-05,-1.258e-05,0.0,0 STARLINK-3528,1 51714U 22016A   23295.34594763 -.00001258  00000-0 -60955-4 0  9998,2 51714  53.2170 271.7602 0001426  75.9983 284.1167 15.08834912 92187,6917.896,95.438,540.747,538.774,0.0
51714.0,STARLINK-3528,PAYLOAD,2023-10-23 04:58:10,15.08838835,0.0001564,53.2171,267.8921,91.4924,268.6248,0.00010586,1.397e-05,0.0,0 STARLINK-3528,1 51714U 22016A   23296.20707120  .00001397  00000-0  10586-3 0  9993,2 51714  53.2171 267.8921 0001564  91.4924 268.6248 15.08838835 92319,6917.884,95.438,540.831,538.667,0.0
51714.0,STARLINK-3528,PAYLOAD,2023-10-24 04:48:58,15.08840956,0.0001485,53.2164,263.4308,87.0514,273.0648,0.00025221,3.728e-05,0.0,0 STARLINK-3528,1 51714U 22016A   23297.20067325  .00003728  00000-0  25221-3 0  9992,2 51714  53.2164 263.4308 0001485  87.0514 273.0648 15.08840956 93536,6917.877,95.437,540.77,538.715,0.0
51714.0,STARLINK-3528,PAYLOAD,2023-10-24 14:21:17,15.08842614,0.0001415,53.2159,261.6454,86.7368,273.3786,0.00033145,4.991e-05,0.0,0 STARLINK-3528,1 51714U 22016A   23297.59811404  .00004991  00000-0  33145-3 0  9996,2 51714  53.2159 261.6454 0001415  86.7368 273.3786 15.08842614 92525,6917.872,95.437,540.716,538.759,0.0
51714.0,STARLINK-3528,PAYLOAD,2023-10-25 06:15:08,15.08843644,0.0001548,53.2172,258.675,89.699,270.418,0.00020446,2.968e-05,0.0,0 STARLINK-3528,1 51714U 22016A   23298.26051361  .00002968  00000-0  20446-3 0  9991,2 51714  53.2172 258.6750 0001548  89.6990 270.4180 15.08843644 93694,6917.869,95.437,540.805,538.663,0.0
51714.0,STARLINK-3528,PAYLOAD,2023-10-26 06:05:55,15.08850178,0.0001468,53.2163,254.2141,94.1522,265.9637,0.00018168,2.605e-05,0.0,0 STARLINK-3528,1 51714U 22016A   23299.25410920  .00002605  00000-0  18168-3 0  9997,2 51714  53.2163 254.2141 0001468  94.1522 265.9637 15.08850178 92777,6917.849,95.437,540.73,538.699,0.0
51714.0,STARLINK-3528,PAYLOAD,2023-10-27 04:21:18,15.08851505,0.0001432,53.2158,250.0493,90.1785,269.9371,0.00019686,2.847e-05,0.0,0 STARLINK-3528,1 51714U 22016A   23300.18146761  .00002847  00000-0  19686-3 0  9995,2 51714  53.2158 250.0493 0001432  90.1785 269.9371 15.08851505 93981,6917.845,95.437,540.701,538.72,0.0
51714.0,STARLINK-3528,PAYLOAD,2023-10-27 13:53:38,15.08837977,0.0001673,53.2165,248.2657,79.9312,280.1869,-1.4352e-05,-5.16e-06,0.0,0 STARLINK-3528,1 51714U 22016A   23300.57891204 -.00000516  00000-0 -14352-4 0  9996,2 51714  53.2165 248.2657 0001673  79.9312 280.1869 15.08837977 92970,6917.887,95.438,540.909,538.594,0.0
51714.0,STARLINK-3528,PAYLOAD,2023-10-27 20:15:10,15.08836466,0.0001777,53.2156,247.0765,83.4519,276.6675,-4.5922e-05,-1.019e-05,0.0,0 STARLINK-3528,1 51714U 22016A   23300.84387651 -.00001019  00000-0 -45922-4 0  9998,2 51714  53.2156 247.0765 0001777  83.4519 276.6675 15.08836466 94082,6917.891,95.438,540.986,538.527,0.0
51714.0,STARLINK-3528,PAYLOAD,2023-10-28 13:44:24,15.0884867,0.0001432,53.2164,243.8029,85.0976,275.018,-0.00023014,-3.95e-05,0.0,0 STARLINK-3528,1 51714U 22016A   23301.57250982 -.00003950  00000-0 -23014-3 0  9998,2 51714  53.2164 243.8029 0001432  85.0976 275.0180 15.08848670 93129,6917.854,95.437,540.71,538.728,0.0
51714.0,STARLINK-3528,PAYLOAD,2023-10-29 05:38:16,15.08861644,0.0001585,53.216,240.8295,93.7013,266.4161,0.00052916,8.149e-05,0.0,0 STARLINK-3528,1 51714U 22016A   23302.23490811  .00008149  00000-0  52916-3 0  9995,2 51714  53.2160 240.8295 0001585  93.7013 266.4161 15.08861644 94292,6917.814,95.436,540.776,538.583,0.0
51714.0,STARLINK-3528,PAYLOAD,2023-10-29 13:35:12,15.08831988,0.000192,53.216,239.3453,76.9809,283.1398,9.7456e-06,-1.33e-06,0.0,0 STARLINK-3528,1 51714U 22016A   23302.56612219 -.00000133  00000-0  97456-5 0  9995,2 51714  53.2160 239.3453 0001920  76.9809 283.1398 15.08831988 93273,6917.905,95.438,541.098,538.442,0.0
51714.0,STARLINK-3528,PAYLOAD,2023-10-30 05:29:03,15.08842383,0.0001438,53.2155,236.3676,91.305,268.8106,0.00015425,2.168e-05,0.0,0 STARLINK-3528,1 51714U 22016A   23303.22851703  .00002168  00000-0  15425-3 0  9995,2 51714  53.2155 236.3676 0001438  91.3050 268.8106 15.08842383 94442,6917.873,95.437,540.733,538.743,0.0
51714.0,STARLINK-3528,PAYLOAD,2023-10-31 00:33:41,15.08839463,0.0001495,53.216,232.7982,96.147,263.9693,9.1988e-05,1.176e-05,0.0,0 STARLINK-3528,1 51714U 22016A   23304.02340094  .00001176  00000-0  91988-4 0  9997,2 51714  53.2160 232.7982 0001495  96.1470 263.9693 15.08839463 94565,6917.882,95.438,540.781,538.713,0.0
51714.0,STARLINK-3528,PAYLOAD,2023-10-31 19:38:19,15.08836408,0.0001262,53.2164,229.2317,96.3836,263.7299,0.00014046,1.948e-05,0.0,0 STARLINK-3528,1 51714U 22016A   23304.81828439  .00001948  00000-0  14046-3 0  9994,2 51714  53.2164 229.2317 0001262  96.3836 263.7299 15.08836408 93613,6917.891,95.438,540.629,538.883,0.0
51714.0,STARLINK-3528,PAYLOAD,2023-11-01 01:59:52,15.08841647,0.0001198,53.2163,228.0476,92.5727,267.5402,0.00022135,3.237e-05,0.0,0 STARLINK-3528,1 51714U 22016A   23305.08324316  .00003237  00000-0  22135-3 0  9990,2 51714  53.2163 228.0476 0001198  92.5727 267.5402 15.08841647 94722,6917.875,95.437,540.569,538.912,0.0
51714.0,STARLINK-3528,PAYLOAD,2023-11-01 11:32:10,15.08845466,0.0001171,53.2159,226.2625,92.226,267.8866,0.00018928,2.726e-05,0.0,0 STARLINK-3528,1 51714U 22016A   23305.48068082  .00002726  00000-0  18928-3 0  9996,2 51714  53.2159 226.2625 0001171  92.2260 267.8866 15.08845466 93711,6917.864,95.437,540.539,538.919,0.0
51714.0,STARLINK-3528,PAYLOAD,2023-11-01 22:39:52,15.08841161,0.0001608,53.2171,224.1803,100.2246,259.8928,6.6652e-05,7.73e-06,0.0,0 STARLINK-3528,1 51714U 22016A   23305.94436320  .00000773  00000-0  66652-4 0  9999,2 51714  53.2171 224.1803 0001608 100.2246 259.8928 15.08841161 93784,6917.877,95.437,540.854,538.629,0.0
51714.0,STARLINK-3528,PAYLOAD,2023-11-02 03:26:02,15.08847544,0.0001605,53.2172,223.2891,100.128,259.9893,0.00016182,2.289e-05,0.0,0 STARLINK-3528,1 51714U 22016A   23306.14308007  .00002289  00000-0  16182-3 0  9998,2 51714  53.2172 223.2891 0001605 100.1280 259.9893 15.08847544 94881,6917.857,95.437,540.833,538.612,0.0
51714.0,STARLINK-3528,PAYLOAD,2023-11-02 11:22:57,15.08845116,0.0001386,53.2157,221.7989,83.6135,276.5015,0.0001493,2.089e-05,0.0,0 STARLINK-3528,1 51714U 22016A   23306.47428027  .00002089  00000-0  14930-3 0  9996,2 51714  53.2157 221.7989 0001386  83.6135 276.5015 15.08845116 93866,6917.865,95.437,540.689,538.771,0.0
51714.0,STARLINK-3528,PAYLOAD,2023-11-02 22:30:40,15.08838308,0.0001584,53.2165,219.7192,93.5783,266.5391,-6.211e-06,-3.87e-06,0.0,0 STARLINK-3528,1 51714U 22016A   23306.93796347 -.00000387  00000-0 -62110-5 0  9996,2 51714  53.2165 219.7192 0001584  93.5783 266.5391 15.08838308 93936,6917.886,95.438,540.846,538.655,0.0
